{
  "type": "FeatureCollection",
  "features": [
    {
      "type": "Feature",
      "properties": {
        "norad_id": 64902,
        "name": "CO3D 2",
        "group": "resource",
        "lat": -81.39663695776572,
        "lon": 179.89686201537015,
        "alt_km": 513.2122793051822,
        "timestamp": "2025-12-09T05:43:20.385871+00:00",
        "meta_object_name": "CO3D 2",
        "meta_object_id": "2025-156D",
        "meta_epoch": "2025-12-08T20:39:30.643776",
        "meta_mean_motion": 15.20210142,
        "meta_eccentricity": 9.57e-05,
        "meta_inclination": 97.434,
        "meta_ra_of_asc_node": 59.1824,
        "meta_arg_of_pericenter": 90.1766,
        "meta_mean_anomaly": 269.9578,
        "meta_ephemeris_type": 0,
        "meta_classification_type": "U",
        "meta_norad_cat_id": 64902,
        "meta_element_set_no": 999,
        "meta_rev_at_epoch": 2061,
        "meta_bstar": 0.00040961,
        "meta_mean_motion_dot": 8.812e-05,
        "meta_mean_motion_ddot": 0,
        "tle_line1": "1 64902U 25156D   25342.86077134  .00008812  00000+0  40961-3 0  9993",
        "tle_line2": "2 64902  97.4340  59.1824 0000957  90.1766 269.9578 15.20210142 20612"
      },
      "geometry": {
        "type": "Point",
        "coordinates": [
          179.89686201537015,
          -81.39663695776572
        ]
      }
    },
    {
      "type": "Feature",
      "properties": {
        "norad_id": 64903,
        "name": "CO3D 1",
        "group": "resource",
        "lat": -80.93416304309874,
        "lon": -175.36263735463143,
        "alt_km": 513.2410998585392,
        "timestamp": "2025-12-09T05:43:20.385881+00:00",
        "meta_object_name": "CO3D 1",
        "meta_object_id": "2025-156E",
        "meta_epoch": "2025-12-08T20:39:44.072928",
        "meta_mean_motion": 15.20198272,
        "meta_eccentricity": 9.72e-05,
        "meta_inclination": 97.4341,
        "meta_ra_of_asc_node": 59.1825,
        "meta_arg_of_pericenter": 98.9242,
        "meta_mean_anomaly": 261.2103,
        "meta_ephemeris_type": 0,
        "meta_classification_type": "U",
        "meta_norad_cat_id": 64903,
        "meta_element_set_no": 999,
        "meta_rev_at_epoch": 2061,
        "meta_bstar": 0.00041289,
        "meta_mean_motion_dot": 8.88e-05,
        "meta_mean_motion_ddot": 0,
        "tle_line1": "1 64903U 25156E   25342.86092677  .00008880  00000+0  41289-3 0  9992",
        "tle_line2": "2 64903  97.4341  59.1825 0000972  98.9242 261.2103 15.20198272 20615"
      },
      "geometry": {
        "type": "Point",
        "coordinates": [
          -175.36263735463143,
          -80.93416304309874
        ]
      }
    },
    {
      "type": "Feature",
      "properties": {
        "norad_id": 66514,
        "name": "SENTINEL-6B",
        "group": "resource",
        "lat": 34.02875417787726,
        "lon": -27.75475967371547,
        "alt_km": 1331.6211655457182,
        "timestamp": "2025-12-09T05:43:20.385891+00:00",
        "meta_object_name": "SENTINEL-6B",
        "meta_object_id": "2025-264A",
        "meta_epoch": "2025-12-08T19:38:09.449952",
        "meta_mean_motion": 12.8403201,
        "meta_eccentricity": 0.0021041,
        "meta_inclination": 66.0385,
        "meta_ra_of_asc_node": 170.5961,
        "meta_arg_of_pericenter": 268.265,
        "meta_mean_anomaly": 91.5957,
        "meta_ephemeris_type": 0,
        "meta_classification_type": "U",
        "meta_norad_cat_id": 66514,
        "meta_element_set_no": 999,
        "meta_rev_at_epoch": 278,
        "meta_bstar": 0.00012295,
        "meta_mean_motion_dot": -3.2e-07,
        "meta_mean_motion_ddot": 0,
        "tle_line1": "1 66514U 25264A   25342.81816493 -.00000032  00000+0  12295-3 0  9994",
        "tle_line2": "2 66514  66.0385 170.5961 0021041 268.2650  91.5957 12.84032010  2782"
      },
      "geometry": {
        "type": "Point",
        "coordinates": [
          -27.75475967371547,
          34.02875417787726
        ]
      }
    }
  ]
}